{
  "norad_id": 56037,
  "name": "STARLINK-5758",
  "history": [
    {
      "epoch": "2026-03-28T20:20:29.674752Z",
      "apogee_km": 486.3062816132706,
      "perigee_km": 484.8507620997052,
      "latitude_deg": -3.3368169753087323e-06,
      "longitude_deg": 151.03171688084413,
      "height_km": 485.40261658257486,
      "semi_major_axis_km": 6863.715521856488,
      "eccentricity": 0.00010603,
      "inclination_deg": 42.9999,
      "raan_deg": 282.4175,
      "arg_perigee_deg": 266.2484,
      "mean_anomaly_deg": 93.8246,
      "mean_motion_rev_day": 15.26735659
    }
  ]
}